STARLINK-4302           
1 53481U 22099S   22241.66667824 -.01207475  00000+0 -13358-1 0  9997
2 53481  97.6557   0.4681 0001934  51.7184  22.5864 15.65630885  2886
STARLINK-4360           
1 53482U 22099T   22241.66667824 -.01206416  00000+0 -13349-1 0  9992
2 53482  97.6557   0.4677 0001997  47.9263  25.7372 15.65622814  2888
STARLINK-4401           
1 53483U 22099U   22241.66667824 -.01207138  00000+0 -13343-1 0  9999
2 53483  97.6557   0.4680 0001836  58.3572  17.8729 15.65652142  2889
STARLINK-4426           
1 53484U 22099V   22241.66667824 -.01206749  00000+0 -13347-1 0  9991
2 53484  97.6556   0.4678 0001608  95.0992 339.8472 15.65637942  2880
STARLINK-4430           
1 53485U 22099W   22241.66667824 -.01206665  00000+0 -13329-1 0  9999
2 53485  97.6557   0.4682 0001985  48.6970  28.8165 15.65666011  2888
STARLINK-4431           
1 53486U 22099X   22241.66667824 -.01206884  00000+0 -13344-1 0  9990
2 53486  97.6557   0.4680 0001800  60.7579  14.8306 15.65644808  2885
STARLINK-4432           
1 53487U 22099Y   22241.66667824 -.01221488  00000+0 -13497-1 0  9997
2 53487  97.6557   0.4689 0001891  52.4872  26.3026 15.65692200  2885
STARLINK-4421           
1 53488U 22099Z   22241.66667824 -.01218532  00000+0 -13474-1 0  9999
2 53488  97.6558   0.4688 0001791  58.7312  18.1351 15.65668700  2881
